{"type":"FeatureCollection","features":[{"type":"Feature","properties":{"iso":"SA-04","nameEn":"Eastern Province","nameAr":"الشرقية","clusters":[],"inTerritory":false},"geometry":{"type":"MultiPolygon","coordinates":[[[[50.2982,25.573],[50.3519,25.5048],[50.3394,25.5626],[50.2982,25.573]]],[[[44.9794,27.6727],[45.0452,27.6282],[45.0597,27.5415],[45.1603,27.3939],[45.1886,27.2828],[45.2469,27.2283],[45.5267,27.0853],[45.6933,27.0578],[45.7939,26.9481],[45.9336,26.85],[46.1433,26.8408],[46.2306,26.8197],[46.5892,26.6078],[46.8305,26.6272],[47.0178,26.4686],[47.0603,26.4028],[47.318,26.32],[47.43,26.2655],[47.4617,26.1986],[47.4742,26.0686],[47.4853,25.4742],[47.4669,25.0764],[47.4967,24.7825],[47.5955,24.6872],[47.8694,24.52],[48.1361,24.2767],[48.2361,24.1389],[48.2893,24.0],[48.31,23.8842],[48.3094,23.6772],[47.5117,17.7744],[47.4667,17.1167],[47.6,17.45],[48.1833,18.1667],[49.1167,18.6167],[50.7833,18.7833],[52.0,19.0],[55.0,20.0],[55.6667,22.0],[55.2092,22.7088],[55.1373,22.6316],[52.581,22.9392],[51.5904,24.127],[51.5891,24.2546],[51.5342,24.2507],[51.4882,24.307],[51.4422,24.3253],[51.4047,24.3277],[51.3563,24.2887],[51.2811,24.2849],[51.2794,24.3408],[51.305,24.3551],[51.3011,24.3914],[51.3232,24.43],[51.4107,24.4957],[51.422,24.5337],[51.5049,24.5747],[51.4768,24.5969],[51.4525,24.5797],[51.4411,24.6225],[51.4259,24.6107],[51.4017,24.6257],[51.4022,24.6002],[51.3108,24.5072],[51.0985,24.4708],[50.9945,24.504],[50.9284,24.5468],[50.8116,24.7444],[50.7688,24.7202],[50.7279,24.8718],[50.6844,24.8905],[50.6734,24.9448],[50.582,25.0696],[50.5866,25.0315],[50.5618,25.0436],[50.5708,25.0642],[50.5457,25.1333],[50.5588,25.1831],[50.5233,25.2311],[50.5318,25.3009],[50.4931,25.4032],[50.3969,25.472],[50.3808,25.5124],[50.3618,25.5028],[50.3817,25.4497],[50.396,25.4535],[50.3991,25.4116],[50.3885,25.4437],[50.3116,25.5149],[50.3125,25.5399],[50.2722,25.5561],[50.2189,25.6202],[50.2095,25.6811],[50.1889,25.6601],[50.156,25.6937],[50.1372,25.7412],[50.2186,25.6735],[50.2355,25.6828],[50.265,25.6122],[50.2627,25.6724],[50.2153,25.7445],[50.1825,25.7615],[50.1093,25.8821],[50.1054,25.9165],[50.1331,25.9309],[50.106,25.9837],[50.0642,25.9893],[50.033,26.022],[50.0183,25.9855],[50.0003,25.9892],[50.0135,26.08],[49.9879,26.1133],[50.0328,26.2018],[50.1197,26.089],[50.1185,26.0543],[50.1415,26.0568],[50.1317,26.03],[50.1559,26.0394],[50.1693,26.1794],[50.1932,26.1633],[50.184,26.1504],[50.2206,26.1843],[50.2343,26.3426],[50.2218,26.3667],[50.2381,26.3708],[50.2017,26.3953],[50.2155,26.4203],[50.1901,26.4074],[50.1708,26.427],[50.2135,26.4727],[50.2204,26.5012],[50.2128,26.4744],[50.1971,26.4802],[50.2067,26.5107],[50.1883,26.4898],[50.1976,26.5244],[50.1628,26.4224],[50.1314,26.4369],[50.1347,26.4972],[50.1047,26.4572],[50.1051,26.4864],[50.0741,26.4652],[50.0419,26.4977],[50.0216,26.5701],[50.0376,26.5471],[50.0858,26.5394],[50.0908,26.5707],[50.0791,26.6005],[50.0279,26.5897],[50.0215,26.5707],[50.0067,26.6277],[50.0229,26.6553],[49.9861,26.6604],[49.9942,26.7441],[50.0378,26.67],[50.0669,26.6884],[50.122,26.6833],[50.162,26.6266],[50.1639,26.6394],[49.9545,26.8527],[49.8693,26.8604],[49.8461,26.8759],[49.8608,26.9009],[49.8464,26.8769],[49.788,26.8974],[49.782,26.9202],[49.7822,26.8985],[49.7683,26.907],[49.7784,26.9193],[49.7665,26.9108],[49.6995,26.9547],[49.7054,26.9676],[49.6862,26.9727],[49.7006,26.9817],[49.6722,26.9803],[49.6681,27.0135],[49.7001,27.0309],[49.6837,27.0136],[49.6887,27.0331],[49.6463,27.0234],[49.6158,27.0551],[49.6822,27.085],[49.7032,27.0708],[49.7169,27.0874],[49.7255,27.072],[49.7172,27.0877],[49.6863,27.0987],[49.617,27.0614],[49.6345,27.0714],[49.5837,27.0919],[49.5676,27.1461],[49.5892,27.2075],[49.6124,27.1916],[49.6143,27.1548],[49.6127,27.192],[49.5893,27.2085],[49.627,27.2836],[49.5823,27.1813],[49.5544,27.1631],[49.5272,27.1882],[49.549,27.1961],[49.543,27.2331],[49.5143,27.2423],[49.511,27.2281],[49.5035,27.296],[49.4886,27.2899],[49.4877,27.304],[49.5277,27.3354],[49.5619,27.3216],[49.547,27.3028],[49.5557,27.2872],[49.5753,27.2952],[49.5653,27.2812],[49.632,27.3148],[49.7021,27.3008],[49.5808,27.329],[49.5482,27.3543],[49.4864,27.3446],[49.4543,27.282],[49.472,27.2593],[49.4619,27.2731],[49.4855,27.2981],[49.464,27.2346],[49.5336,27.1957],[49.4953,27.1623],[49.5223,27.1191],[49.4795,27.1314],[49.4458,27.1133],[49.4325,27.1442],[49.4097,27.1264],[49.42,27.0985],[49.4494,27.0842],[49.4595,27.0993],[49.4693,27.0821],[49.4417,27.0815],[49.3669,27.1185],[49.3708,27.1507],[49.4001,27.144],[49.4123,27.1945],[49.364,27.1913],[49.3508,27.1414],[49.3208,27.1812],[49.3187,27.326],[49.2836,27.3431],[49.2176,27.3106],[49.236,27.324],[49.2331,27.3679],[49.2722,27.3864],[49.2526,27.4088],[49.203,27.3751],[49.2047,27.3953],[49.1228,27.4061],[49.1389,27.4407],[49.1645,27.4225],[49.1889,27.4454],[49.1836,27.4167],[49.2157,27.4465],[49.2365,27.4279],[49.2569,27.4474],[49.2735,27.4323],[49.2947,27.4606],[49.2966,27.4268],[49.3123,27.425],[49.3072,27.4702],[49.2543,27.5259],[49.0404,27.5606],[48.9692,27.6222],[48.9094,27.5909],[48.9036,27.5776],[48.9199,27.5954],[48.926,27.5764],[48.9041,27.5651],[48.9157,27.6248],[48.8965,27.6297],[48.8767,27.5965],[48.8485,27.6032],[48.8495,27.6276],[48.8739,27.6075],[48.8497,27.6418],[48.8777,27.6402],[48.881,27.6732],[48.8466,27.6585],[48.8562,27.6895],[48.8442,27.7071],[48.8256,27.6818],[48.816,27.7434],[48.8028,27.7108],[48.7843,27.7133],[48.8113,27.8192],[48.8299,27.8293],[48.806,27.751],[48.837,27.763],[48.8418,27.8134],[48.8698,27.7923],[48.8419,27.7644],[48.8608,27.7662],[48.8442,27.7224],[48.8906,27.7665],[48.8945,27.7816],[48.8878,27.7686],[48.8735,27.7804],[48.8903,27.8189],[48.8251,27.867],[48.8239,27.9012],[48.7949,27.9033],[48.7477,27.9527],[48.7473,27.9794],[48.7881,27.9989],[48.7477,27.972],[48.7717,27.9766],[48.7935,27.9992],[48.6935,28.0163],[48.6223,28.0856],[48.6158,28.1066],[48.635,28.1064],[48.6099,28.1129],[48.6101,28.1623],[48.6355,28.1948],[48.5414,28.2809],[48.5148,28.331],[48.5426,28.4092],[48.4688,28.3829],[48.4829,28.3979],[48.4759,28.3866],[48.5066,28.3898],[48.5296,28.4187],[48.5004,28.4388],[48.5015,28.4946],[48.4305,28.5344],[47.7045,28.5244],[47.709,28.5431],[47.6059,28.6553],[47.5871,28.8367],[47.4657,29.0003],[46.5631,29.1],[46.4261,29.0612],[46.0512,29.0932],[46.0054,29.0238],[45.8968,28.9906],[45.8471,28.9452],[45.7887,28.9286],[45.7541,28.8745],[45.7051,28.8731],[45.6777,28.8024],[45.652,28.7846],[45.1584,28.7858],[45.1466,28.7291],[45.0522,28.6633],[45.1236,28.5617],[45.2775,28.407],[45.3532,28.2088],[45.3316,28.174],[45.2172,28.1369],[45.2144,28.0848],[45.1858,28.0411],[45.186,27.9769],[45.1404,27.9257],[45.1423,27.877],[45.0463,27.7883],[45.0431,27.7418],[45.0093,27.7275],[44.9794,27.6727]]],[[[49.3479,27.2127],[49.3671,27.209],[49.3686,27.2278],[49.3479,27.2127]]],[[[49.2837,27.3649],[49.313,27.3607],[49.3156,27.3841],[49.2837,27.3649]]],[[[49.2101,27.4167],[49.2117,27.3936],[49.2267,27.3974],[49.2101,27.4167]]]]}},{"type":"Feature","properties":{"iso":"SA-10","nameEn":"Najran","nameAr":"نجران","clusters":["Najran"],"inTerritory":true},"geometry":{"type":"Polygon","coordinates":[[[47.745,19.5311],[47.4494,19.4583],[46.9739,19.3925],[45.2661,19.2536],[44.9153,19.2928],[44.7636,19.3586],[44.5167,19.5125],[44.5155,19.345],[44.4831,19.3067],[44.3714,19.2533],[44.3514,19.2094],[44.4022,18.9731],[44.3692,18.8531],[44.2647,18.775],[44.0814,18.7192],[43.9917,18.5656],[43.7536,18.3561],[43.6386,18.2142],[43.6764,17.9983],[43.6539,17.7658],[43.6344,17.725],[43.6736,17.5803],[43.6178,17.4261],[43.6833,17.3667],[43.7889,17.375],[43.8319,17.3389],[43.9667,17.3306],[44.0113,17.4024],[44.0667,17.4058],[44.1108,17.3664],[44.138,17.4089],[44.3661,17.4334],[44.4666,17.4352],[44.5667,17.4074],[44.6497,17.4351],[45.2172,17.4352],[45.4,17.3333],[46.1,17.25],[46.3667,17.2333],[46.75,17.2833],[47.0002,16.951],[47.1833,16.95],[47.4667,17.1167],[47.5117,17.7744],[47.745,19.5311]]]}},{"type":"Feature","properties":{"iso":"SA-08","nameEn":"Northern Borders","nameAr":"الحدود الشمالية","clusters":["N. Borders"],"inTerritory":true},"geometry":{"type":"Polygon","coordinates":[[[46.0512,29.0932],[44.7219,29.1985],[43.4097,30.1668],[42.0856,31.1117],[41.4407,31.3732],[40.4133,31.9481],[39.2009,32.1543],[39.0063,32.0006],[37.9655,31.7459],[37.9486,31.7189],[37.9625,31.6828],[37.9377,31.6506],[37.957,31.5814],[37.9411,31.5216],[37.9635,31.4697],[37.9418,31.4522],[37.962,31.3751],[37.9332,31.3369],[37.9358,31.2831],[37.8902,31.2144],[37.9147,31.1969],[38.0009,31.2033],[38.0562,31.1464],[38.0754,31.1702],[38.096,31.1611],[38.0754,31.1041],[38.1275,31.1146],[38.1559,31.0892],[38.1527,31.0483],[38.1789,31.0015],[38.1626,30.915],[38.1938,30.8591],[38.3326,30.9054],[38.4669,30.9078],[38.558,30.9338],[38.734,30.9302],[38.7597,30.8901],[38.7917,30.8821],[38.8044,30.9025],[38.869,30.9076],[38.98,30.9674],[39.2092,30.9693],[39.3139,30.9511],[39.4141,30.8915],[39.4921,30.9172],[39.6497,30.9148],[39.7547,30.8545],[39.8686,30.8896],[39.8969,30.8533],[39.937,30.8456],[39.9786,30.8009],[40.094,30.7346],[40.1992,30.7471],[40.2578,30.8125],[40.2991,30.8257],[40.4353,30.781],[40.6897,30.7373],[40.8936,30.7714],[41.0111,30.7615],[41.1007,30.7301],[41.1218,30.6688],[41.1002,30.5535],[41.1134,30.5101],[41.1458,30.5115],[41.1972,30.5785],[41.3611,30.5689],[41.4185,30.5884],[41.4639,30.5545],[41.6327,30.5207],[41.6306,30.4917],[41.5595,30.4307],[41.5693,30.3728],[41.6133,30.342],[41.7425,30.3221],[41.8232,30.2198],[41.9786,30.0886],[41.9433,30.0602],[41.7901,30.0239],[41.7696,30.0042],[41.7492,29.9095],[41.7132,29.9264],[41.5929,29.9199],[41.5587,29.8997],[41.5035,29.818],[41.4019,29.8043],[41.4189,29.7553],[41.4218,29.5309],[41.4463,29.5266],[41.4627,29.5566],[41.5117,29.5499],[41.5049,29.4437],[41.5568,29.3352],[41.5919,29.3116],[41.5777,29.2581],[41.608,29.1413],[41.4761,29.1331],[41.4165,29.1058],[41.3615,28.977],[41.3488,28.8729],[41.8602,28.8272],[41.9083,28.8054],[42.0473,28.8798],[42.1277,28.8234],[42.4734,28.7587],[42.5283,28.7298],[42.5301,28.6831],[42.5795,28.625],[42.6353,28.6066],[42.6734,28.6196],[42.7883,28.5669],[42.7989,28.5367],[42.7778,28.4524],[42.8323,28.4251],[42.8245,28.3866],[42.8926,28.406],[43.0977,28.3271],[43.1884,28.3856],[43.2354,28.3938],[43.2638,28.4291],[43.397,28.4038],[43.4366,28.4339],[43.4412,28.3732],[43.465,28.3602],[43.4811,28.4435],[43.5152,28.419],[43.5408,28.4326],[43.5665,28.4185],[43.6714,28.4602],[43.6932,28.4309],[43.8022,28.4102],[43.85,28.4345],[43.9146,28.3459],[43.8822,28.259],[43.9403,28.0781],[43.9107,27.9538],[43.9608,27.9344],[43.9741,27.8962],[44.083,27.9653],[44.1641,27.9682],[44.2836,27.9224],[44.5313,27.7534],[44.7208,27.5252],[44.9302,27.6052],[45.0093,27.7275],[45.0431,27.7418],[45.0463,27.7883],[45.1423,27.877],[45.1404,27.9257],[45.186,27.9769],[45.1858,28.0411],[45.2144,28.0848],[45.2172,28.1369],[45.3316,28.174],[45.352,28.198],[45.2634,28.4284],[45.0517,28.6481],[45.0561,28.6678],[45.1466,28.7291],[45.1478,28.7829],[45.652,28.7846],[45.6777,28.8024],[45.7051,28.8731],[45.7541,28.8745],[45.7887,28.9286],[45.8471,28.9452],[45.8968,28.9906],[46.0054,29.0238],[46.0512,29.0932]]]}},{"type":"Feature","properties":{"iso":"SA-06","nameEn":"Hail","nameAr":"حائل","clusters":["Hail"],"inTerritory":true},"geometry":{"type":"Polygon","coordinates":[[[41.3488,28.8729],[40.5309,28.8851],[40.4246,28.8155],[39.9505,28.6336],[39.7912,28.5448],[39.7341,28.453],[39.608,28.3543],[39.4557,28.1872],[39.3693,28.0622],[39.3675,28.0224],[39.4028,27.9809],[39.7041,27.8658],[39.8324,27.7646],[39.9084,27.6058],[39.9249,27.4283],[40.011,27.2787],[40.011,27.1691],[39.9865,27.1233],[39.9632,27.1515],[39.8983,27.165],[39.8871,27.2093],[39.8477,27.2301],[39.8062,27.2377],[39.7682,27.2142],[39.7335,27.1199],[39.5023,26.8583],[39.4943,26.7859],[39.5141,26.7526],[39.6593,26.7308],[39.6681,26.6667],[39.761,26.5978],[39.7909,26.5243],[39.8862,26.3976],[39.8881,26.2643],[39.962,26.1495],[39.9515,25.8046],[39.979,25.7374],[39.9602,25.6351],[39.9637,25.4787],[40.0141,25.3839],[40.1104,25.3437],[40.4543,25.291],[40.4565,25.3827],[40.4967,25.4313],[40.5461,25.4394],[40.5926,25.4056],[40.714,25.4172],[40.8099,25.5452],[40.8824,25.5814],[40.9831,25.5614],[41.0637,25.5681],[41.1515,25.4975],[41.2374,25.4798],[41.3527,25.5738],[41.4581,25.7353],[41.6781,25.725],[41.7274,25.8131],[41.8183,25.8823],[41.8035,25.9188],[41.8258,25.9673],[41.8978,25.9437],[41.9231,25.9539],[41.9109,25.9997],[41.9422,26.0311],[41.9481,26.0956],[42.0316,26.1268],[42.0706,26.18],[42.1603,26.155],[42.1896,26.1886],[42.2016,26.2385],[42.1625,26.3445],[42.2393,26.4081],[42.2783,26.4683],[42.3377,26.4758],[42.3598,26.4215],[42.4051,26.5154],[42.4573,26.5061],[42.6182,26.613],[42.7133,26.747],[42.7109,26.8227],[42.7779,26.8265],[42.8479,26.8781],[42.8898,26.8696],[42.9386,26.9197],[43.0113,26.8777],[43.1166,26.9602],[43.2161,27.119],[43.2136,27.2095],[43.338,27.25],[43.334,27.2852],[43.2654,27.3116],[43.2864,27.4138],[43.3829,27.4307],[43.3865,27.4735],[43.4154,27.4956],[43.4747,27.4712],[43.5089,27.5021],[43.7158,27.517],[43.7034,27.7377],[43.7317,27.9456],[43.9276,28.1095],[43.8822,28.259],[43.9117,28.3574],[43.8404,28.4381],[43.8022,28.4102],[43.6932,28.4309],[43.6714,28.4602],[43.5665,28.4185],[43.5408,28.4326],[43.5152,28.419],[43.4811,28.4435],[43.465,28.3602],[43.4412,28.3732],[43.4366,28.4339],[43.397,28.4038],[43.2638,28.4291],[43.2354,28.3938],[43.1884,28.3856],[43.0977,28.3271],[42.8926,28.406],[42.8245,28.3866],[42.8323,28.4251],[42.7778,28.4524],[42.7989,28.5367],[42.7883,28.5669],[42.6734,28.6196],[42.6353,28.6066],[42.5795,28.625],[42.5301,28.6831],[42.5283,28.7298],[42.4734,28.7587],[42.1277,28.8234],[42.0473,28.8798],[41.9083,28.8054],[41.8602,28.8272],[41.3488,28.8729]]]}},{"type":"Feature","properties":{"iso":"SA-01","nameEn":"Riyadh","nameAr":"الرياض","clusters":[],"inTerritory":false},"geometry":{"type":"Polygon","coordinates":[[[44.9794,27.6727],[44.8952,27.5802],[44.8154,27.5737],[44.7208,27.5252],[44.8752,27.2982],[44.8916,27.2238],[44.877,27.0312],[44.8956,26.9307],[44.7075,27.0447],[44.462,27.0015],[44.4276,26.9825],[44.4105,26.9367],[44.3915,26.6139],[44.5063,26.0685],[44.6436,25.7963],[44.7942,25.7003],[44.7168,25.5058],[44.4566,25.6107],[44.3743,25.5319],[44.0544,25.4477],[43.9703,25.3365],[43.7338,25.311],[43.7303,25.2196],[43.6887,25.1842],[43.6066,25.1655],[43.5043,25.2151],[43.4539,25.2055],[43.3722,25.0998],[43.2643,25.0145],[43.1426,25.0118],[43.1251,24.9872],[43.101,24.9424],[43.1033,24.8996],[43.1807,24.9367],[43.2056,24.9334],[43.2185,24.9054],[43.1889,24.8687],[43.1152,24.8414],[43.1589,24.7891],[43.1078,24.7726],[43.0936,24.7491],[43.1185,24.7353],[43.1947,24.7528],[43.2091,24.7298],[43.1212,24.5563],[43.0671,24.5163],[42.9028,24.5471],[42.8373,24.5222],[42.8246,24.4689],[42.7861,24.4439],[42.5636,24.4453],[42.4331,24.7],[42.1297,24.7074],[42.0844,24.528],[41.9989,24.4153],[42.0261,24.3194],[41.9853,24.1897],[41.9764,23.7892],[42.0042,23.7497],[42.1047,23.6803],[42.1375,23.5503],[42.1986,23.4239],[42.225,23.2728],[42.3744,22.9706],[42.4617,22.9267],[42.8708,22.9097],[42.9605,22.8869],[43.0139,22.8364],[42.9892,22.7575],[42.9808,22.6139],[43.0175,22.5517],[43.125,22.5172],[43.2889,22.5569],[43.4761,22.5189],[43.485,22.4767],[43.4572,22.3103],[43.5092,21.9561],[43.4894,21.8928],[43.4217,21.8],[43.4375,21.6117],[43.3875,21.4228],[43.3908,21.3617],[43.6675,20.9761],[43.8156,20.8592],[43.9239,20.705],[44.0483,20.5847],[44.063,20.4972],[43.9675,20.3358],[43.9242,20.1444],[43.9305,20.1006],[44.0103,20.0194],[44.1239,19.8447],[44.4964,19.5258],[44.7636,19.3586],[44.9153,19.2928],[45.2661,19.2536],[46.9739,19.3925],[47.4494,19.4583],[47.745,19.5311],[48.3094,23.6772],[48.31,23.8842],[48.2706,24.0681],[48.1361,24.2767],[47.8694,24.52],[47.5955,24.6872],[47.4967,24.7825],[47.4669,25.0764],[47.4853,25.4742],[47.4742,26.0686],[47.4617,26.1986],[47.43,26.2655],[47.318,26.32],[47.0603,26.4028],[47.0178,26.4686],[46.8305,26.6272],[46.5892,26.6078],[46.2306,26.8197],[46.1433,26.8408],[45.9336,26.85],[45.7939,26.9481],[45.6933,27.0578],[45.5267,27.0853],[45.2469,27.2283],[45.1886,27.2828],[45.1603,27.3939],[45.0597,27.5415],[45.0452,27.6282],[44.9794,27.6727]]]}},{"type":"Feature","properties":{"iso":"SA-14","nameEn":"Aseer","nameAr":"عسير","clusters":["Aseer"],"inTerritory":true},"geometry":{"type":"Polygon","coordinates":[[[44.5167,19.5125],[44.1239,19.8447],[44.0103,20.0194],[43.9305,20.1006],[43.9242,20.1444],[43.9597,20.3117],[44.0567,20.4783],[44.0592,20.5592],[43.9239,20.705],[43.8347,20.8394],[43.6675,20.9761],[43.5508,20.9361],[43.385,20.8333],[43.2336,20.8689],[43.1681,20.8622],[43.0764,20.8208],[42.9444,20.8133],[42.8208,20.7094],[42.6347,20.6258],[42.3414,20.3731],[42.2744,20.3419],[42.2081,20.3486],[42.1675,20.3767],[42.0319,20.6247],[41.9697,20.4494],[42.0358,20.3739],[42.0389,20.3303],[42.0089,20.2906],[41.84,20.1819],[41.8156,20.1328],[41.8222,20.0356],[41.6985,19.7969],[41.7422,19.8172],[41.8086,19.8136],[41.8622,19.7619],[41.8303,19.53],[41.8939,19.4078],[41.8569,19.2811],[41.835,19.2419],[41.7908,19.2214],[41.5883,19.2231],[41.4758,19.1453],[41.4542,19.1436],[41.3969,19.1953],[41.3883,18.8786],[41.4108,18.8161],[41.45,18.7872],[41.6236,18.7844],[41.7278,18.7442],[41.8142,18.4914],[41.7706,18.3139],[41.9,18.3269],[41.9367,18.2983],[41.9208,18.055],[41.9422,18.0419],[42.0903,18.0481],[42.1675,17.9125],[42.4078,17.9014],[42.445,17.8669],[42.4911,17.7633],[42.5853,17.6753],[42.6497,17.6567],[42.6867,17.68],[42.735,17.8678],[42.77,17.9261],[42.9175,18.0106],[42.9464,17.9794],[42.9425,17.8567],[43.0469,17.8061],[43.1236,17.6772],[43.2292,17.6447],[43.3209,17.5327],[43.4196,17.5658],[43.4846,17.5451],[43.6178,17.4261],[43.6736,17.5803],[43.6344,17.725],[43.6539,17.7658],[43.6764,17.9983],[43.6386,18.2142],[43.7536,18.3561],[43.9917,18.5656],[44.0814,18.7192],[44.2647,18.775],[44.3692,18.8531],[44.4022,18.9731],[44.3514,19.2094],[44.3714,19.2533],[44.4831,19.3067],[44.5155,19.345],[44.5167,19.5125]]]}},{"type":"Feature","properties":{"iso":"SA-02","nameEn":"Makkah","nameAr":"مكة المكرمة","clusters":["Jeddah C1","Jeddah C2","Makkah","Taif"],"inTerritory":true},"geometry":{"type":"MultiPolygon","coordinates":[[[[38.7744,23.1683],[38.7872,23.1474],[38.7866,23.179],[38.7744,23.1683]]],[[[39.996,20.259],[40.1968,20.1671],[40.0896,20.2306],[39.996,20.259]]],[[[41.9864,23.9491],[41.8397,23.9719],[41.7458,23.9444],[41.7289,23.8825],[41.7611,23.8153],[41.7658,23.7292],[41.715,23.6292],[41.3739,23.4731],[41.2697,23.3961],[41.2756,23.3561],[41.2975,23.3383],[41.4528,23.2594],[41.4644,23.2172],[41.4481,23.1969],[41.2836,23.135],[41.2125,23.0875],[41.0639,22.9444],[40.7928,22.7531],[40.6631,22.5736],[40.4192,22.6325],[40.2847,22.5219],[40.2172,22.4917],[40.0792,22.5067],[40.0603,22.5492],[40.0844,22.6533],[40.0714,22.7156],[40.0108,22.7669],[39.8953,22.7986],[39.8781,22.8186],[39.9533,23.0278],[39.9453,23.115],[39.9142,23.1522],[39.7761,23.1439],[39.4731,23.0567],[39.4528,23.0722],[39.4403,23.1758],[39.3944,23.1858],[39.2078,23.1622],[38.9897,23.3561],[38.9281,23.4478],[38.6658,23.4225],[38.6681,23.3478],[38.6971,23.3334],[38.6834,23.319],[38.6956,23.2909],[38.6841,23.2981],[38.713,23.2773],[38.7087,23.2536],[38.7456,23.1963],[38.7674,23.1757],[38.7829,23.1953],[38.7912,23.1729],[38.8122,23.0877],[38.7882,23.0375],[38.7983,23.0087],[38.8325,22.9691],[38.8314,22.9984],[38.8383,22.9808],[38.919,22.9575],[38.9365,22.9019],[38.9725,22.8631],[38.9574,22.8417],[38.9218,22.8516],[38.8878,22.9228],[38.8494,22.9381],[38.9863,22.7413],[38.9844,22.7555],[39.0116,22.7601],[39.009,22.7367],[38.9879,22.7291],[39.0785,22.5804],[39.0815,22.5262],[39.1011,22.5263],[39.0777,22.5089],[39.0892,22.4606],[39.0754,22.4037],[39.0981,22.3914],[39.096,22.3602],[39.1057,22.3818],[39.1232,22.3787],[39.1079,22.4063],[39.1432,22.4066],[39.1107,22.3437],[39.0891,22.349],[39.1077,22.337],[39.0976,22.2823],[39.041,22.2033],[39.0421,22.1455],[39.0179,22.0948],[39.0357,22.0983],[39.0527,22.1648],[39.0537,22.0625],[39.0151,22.0616],[39.0082,21.9855],[38.9647,21.9856],[38.9913,22.0387],[38.93,22.0121],[38.944,21.9619],[38.9649,21.9669],[38.9704,21.9506],[38.9473,21.9429],[38.9684,21.9178],[38.9469,21.9238],[38.9494,21.9073],[39.0096,21.8208],[39.0392,21.8387],[39.0132,21.8176],[39.0375,21.8048],[39.0827,21.7096],[39.1115,21.7235],[39.132,21.7653],[39.1724,21.779],[39.1402,21.7676],[39.0859,21.7043],[39.1115,21.534],[39.1341,21.5259],[39.1312,21.5091],[39.1561,21.5344],[39.1589,21.4994],[39.1852,21.4929],[39.1534,21.4912],[39.1479,21.4742],[39.1622,21.4823],[39.1685,21.448],[39.1575,21.4635],[39.1548,21.4451],[39.1746,21.4467],[39.1545,21.4288],[39.1687,21.445],[39.1895,21.4146],[39.1675,21.3883],[39.1762,21.3755],[39.1326,21.3448],[39.1326,21.3663],[39.1305,21.3365],[39.1115,21.349],[39.1065,21.3338],[39.1213,21.3334],[39.0986,21.3236],[39.1662,21.2161],[39.1902,21.1016],[39.2391,21.0752],[39.2668,21.0347],[39.2715,20.9796],[39.3077,20.926],[39.3714,20.902],[39.3635,20.8672],[39.4225,20.8214],[39.4565,20.8234],[39.4545,20.7988],[39.4236,20.8182],[39.4563,20.7441],[39.49,20.7293],[39.4477,20.7812],[39.4594,20.7894],[39.4981,20.7643],[39.5021,20.7329],[39.4865,20.7265],[39.5329,20.6413],[39.5813,20.5846],[39.6062,20.5899],[39.62,20.5589],[39.5868,20.5826],[39.5837,20.565],[39.612,20.5325],[39.6096,20.5487],[39.6252,20.5453],[39.6129,20.5299],[39.6327,20.5115],[39.6529,20.5138],[39.6655,20.4542],[39.7305,20.3916],[39.9477,20.26],[39.901,20.3033],[39.9384,20.3021],[39.99,20.2641],[40.0622,20.2884],[40.1118,20.273],[40.169,20.1907],[40.2361,20.1918],[40.2309,20.1586],[40.2525,20.1591],[40.2863,20.0997],[40.3907,20.0691],[40.5385,19.9672],[40.5519,19.9252],[40.5363,19.9034],[40.5734,19.8889],[40.587,19.8288],[40.6227,19.8141],[40.6492,19.7631],[40.6844,19.7532],[40.6538,19.7696],[40.6497,19.7931],[40.7371,19.7983],[40.794,19.7329],[40.8068,19.6192],[40.8031,19.5994],[40.7773,19.61],[40.9627,19.4968],[40.9528,19.351],[41.0119,19.3194],[41.0166,19.2872],[41.0451,19.2632],[41.0401,19.1957],[41.0725,19.1202],[41.1613,19.086],[41.1667,19.0404],[41.1296,18.9556],[41.1605,18.8827],[41.2434,18.8467],[41.2086,18.7073],[41.2591,18.6367],[41.2567,18.612],[41.2929,18.5835],[41.3585,18.58],[41.4185,18.5145],[41.4159,18.4736],[41.4384,18.4823],[41.4309,18.4642],[41.4541,18.4464],[41.4419,18.3955],[41.4816,18.3127],[41.4728,18.2942],[41.5156,18.2728],[41.4908,18.234],[41.5016,18.2275],[41.5033,18.2536],[41.5276,18.2384],[41.5247,18.2017],[41.5518,18.1931],[41.5632,18.1734],[41.5463,18.1695],[41.5716,18.165],[41.5856,18.0952],[41.6389,18.1997],[41.7233,18.2383],[41.7556,18.2753],[41.8142,18.4914],[41.7278,18.7442],[41.7075,18.7625],[41.6236,18.7844],[41.45,18.7872],[41.4108,18.8161],[41.3828,18.9194],[41.3908,19.1753],[41.3969,19.1953],[41.4542,19.1436],[41.4758,19.1453],[41.6111,19.23],[41.7908,19.2214],[41.835,19.2419],[41.8939,19.4078],[41.8303,19.53],[41.8622,19.7619],[41.8286,19.8053],[41.765,19.8189],[41.6756,19.7831],[41.4975,19.7658],[41.4278,19.6433],[41.3531,19.3961],[41.2889,19.3664],[41.2139,19.3664],[41.1678,19.3953],[41.1081,19.4794],[41.0011,19.5381],[40.9633,19.5803],[40.9711,19.7022],[40.9447,19.8092],[40.9536,19.9542],[40.9256,19.9961],[40.8194,20.0261],[40.7931,20.065],[40.9111,20.1964],[41.1356,20.2472],[41.2533,20.4714],[41.2569,20.5358],[41.2247,20.66],[41.245,20.7178],[41.3067,20.7628],[41.3914,20.7483],[41.4267,20.7086],[41.4639,20.6056],[41.5194,20.5656],[41.6533,20.6139],[41.7742,20.6083],[41.9103,20.6775],[41.9744,20.6775],[42.0367,20.6197],[42.1675,20.3767],[42.2081,20.3486],[42.2744,20.3419],[42.3414,20.3731],[42.6347,20.6258],[42.8208,20.7094],[42.9444,20.8133],[43.0764,20.8208],[43.1681,20.8622],[43.2336,20.8689],[43.385,20.8333],[43.5508,20.9361],[43.6675,20.9761],[43.3864,21.3814],[43.4375,21.6117],[43.4217,21.8],[43.4894,21.8928],[43.5092,21.9561],[43.4572,22.3103],[43.485,22.4767],[43.4761,22.5189],[43.2889,22.5569],[43.125,22.5172],[43.0175,22.5517],[42.9808,22.6139],[42.9892,22.7575],[43.0139,22.8364],[42.9605,22.8869],[42.8708,22.9097],[42.4617,22.9267],[42.3744,22.9706],[42.225,23.2728],[42.1986,23.4239],[42.1375,23.5503],[42.1047,23.6803],[41.9842,23.7683],[41.9864,23.9491]]]]}},{"type":"Feature","properties":{"iso":"SA-07","nameEn":"Tabuk","nameAr":"تبوك","clusters":["Tabuk"],"inTerritory":true},"geometry":{"type":"MultiPolygon","coordinates":[[[[35.1833,27.9703],[35.1945,27.9464],[35.225,27.9382],[35.1833,27.9703]]],[[[34.6519,27.9247],[34.6825,27.9437],[34.7071,27.9032],[34.7399,27.9217],[34.6913,27.9591],[34.659,27.947],[34.6519,27.9247]]],[[[34.4944,28.0008],[34.5024,27.9453],[34.5528,27.9122],[34.6223,27.9215],[34.5894,27.9469],[34.5892,27.9689],[34.538,27.9634],[34.5015,27.9832],[34.5515,27.9932],[34.543,28.0104],[34.4944,28.0008]]],[[[35.0236,28.0604],[35.0491,28.052],[35.0303,28.0715],[35.0236,28.0604]]],[[[34.7045,28.0778],[34.7338,28.0608],[34.7249,28.0817],[34.7045,28.0778]]],[[[35.9981,26.915],[36.0135,26.8937],[36.0279,26.9029],[35.9981,26.915]]],[[[37.1816,24.7943],[37.1983,24.7752],[37.2167,24.7924],[37.1816,24.7943]]],[[[37.0653,24.9575],[37.114,24.9579],[37.0747,24.9868],[37.0653,24.9575]]],[[[36.9669,25.4715],[36.986,25.4628],[36.9827,25.4341],[37.0235,25.4304],[36.9888,25.4734],[36.9669,25.4715]]],[[[36.9402,25.4977],[36.9862,25.4932],[36.9527,25.5151],[36.9402,25.4977]]],[[[36.8274,25.5459],[36.8406,25.5343],[36.87,25.5563],[36.8403,25.5706],[36.8274,25.5459]]],[[[36.9075,25.5973],[36.9227,25.5779],[36.9295,25.5942],[36.9075,25.5973]]],[[[36.4821,25.6443],[36.5076,25.6134],[36.5469,25.6248],[36.5176,25.6494],[36.5079,25.6363],[36.5094,25.6623],[36.4821,25.6443]]],[[[36.5557,25.7307],[36.5915,25.7017],[36.5631,25.7285],[36.5823,25.7484],[36.5557,25.7307]]],[[[36.9041,25.5445],[36.9341,25.523],[36.9098,25.569],[36.9041,25.5445]]],[[[39.7912,28.5448],[39.7683,28.5861],[39.7183,28.6159],[39.3983,28.7108],[39.3131,28.7522],[39.1574,28.8536],[38.9668,29.015],[38.5806,29.2356],[38.488,29.2535],[38.2871,29.186],[38.2233,29.185],[38.2043,29.225],[38.251,29.3211],[38.3919,29.4719],[38.3974,29.5053],[38.2052,29.6061],[38.1018,29.6244],[37.9216,29.6973],[37.6044,29.8964],[37.5016,29.9998],[36.7535,29.8685],[36.5045,29.4999],[36.0728,29.1834],[34.9572,29.3561],[34.9515,29.3022],[34.9286,29.2905],[34.9411,29.2407],[34.9095,29.2206],[34.8472,29.0281],[34.8612,28.9947],[34.8215,28.8839],[34.8401,28.8677],[34.8344,28.8116],[34.7751,28.6621],[34.8055,28.523],[34.6764,28.267],[34.6672,28.2074],[34.6456,28.1884],[34.6587,28.1643],[34.6314,28.1738],[34.571,28.0962],[34.6096,28.0956],[34.6041,28.0619],[34.6243,28.024],[34.669,28.0677],[34.6493,28.0929],[34.6795,28.1317],[34.7044,28.1244],[34.7087,28.1389],[34.7149,28.1086],[34.7548,28.1016],[34.739,28.0598],[34.7701,28.0624],[34.7564,28.097],[34.785,28.0888],[34.8138,28.1105],[34.7957,28.0714],[34.8487,28.1131],[34.8635,28.1087],[34.8382,28.0957],[34.8488,28.0703],[34.9275,28.0758],[34.998,28.1105],[35.0335,28.0885],[35.0133,28.1214],[35.0592,28.1108],[35.1077,28.0685],[35.2223,28.0465],[35.2252,28.0305],[35.1628,28.0139],[35.1653,28.0014],[35.2675,27.95],[35.349,27.8518],[35.3604,27.7966],[35.4294,27.7738],[35.486,27.6506],[35.5288,27.6218],[35.5312,27.5639],[35.5484,27.5631],[35.5283,27.5599],[35.5348,27.5314],[35.5853,27.4696],[35.5921,27.4337],[35.6615,27.3604],[35.7408,27.3229],[35.8073,27.2252],[35.8174,27.197],[35.7876,27.1597],[35.8,27.1134],[36.0329,26.9066],[36.0981,26.7408],[36.1446,26.7202],[36.1739,26.6695],[36.2466,26.6127],[36.3734,26.3504],[36.4636,26.2272],[36.4961,26.1165],[36.5739,26.0622],[36.6506,26.0583],[36.7058,26.0308],[36.6945,25.9218],[36.6444,25.8515],[36.6722,25.8437],[36.6964,25.7837],[36.7179,25.7881],[36.7458,25.7387],[36.8006,25.7081],[36.8145,25.7173],[36.8,25.7583],[36.8211,25.7514],[36.8751,25.6699],[36.9388,25.6463],[36.9673,25.6074],[36.9747,25.5532],[37.0004,25.5463],[36.9994,25.4995],[37.0769,25.4421],[37.0749,25.4009],[37.1109,25.3134],[37.2391,25.1902],[37.267,25.1037],[37.2443,25.0638],[37.286,24.9906],[37.2489,24.9065],[37.2658,24.8674],[37.2226,24.8141],[37.1992,24.8105],[37.1906,24.8217],[37.2163,24.8318],[37.1788,24.8397],[37.1552,24.8238],[37.1756,24.7915],[37.1773,24.8067],[37.2302,24.7931],[37.2314,24.7591],[37.2082,24.764],[37.2213,24.7068],[37.2935,24.6767],[37.3188,24.6235],[37.3372,24.6358],[37.3858,24.5349],[37.4374,24.568],[37.5017,24.6973],[37.557,24.6625],[37.7184,24.6655],[37.7857,24.6442],[37.8496,24.7171],[37.7989,24.7589],[37.9188,24.7931],[37.9973,24.7858],[38.0303,24.7612],[38.0505,24.7881],[38.0494,24.8593],[38.0275,24.8834],[37.9872,24.8553],[37.9709,24.8626],[37.9345,24.9383],[37.8779,24.9921],[37.8577,25.0756],[37.8628,25.1726],[37.7843,25.2628],[37.7961,25.3317],[37.7389,25.4629],[37.7254,25.5436],[37.74,25.5761],[37.8465,25.6523],[37.8443,25.6882],[37.7434,25.7583],[37.6016,25.7925],[37.5444,25.8429],[37.5478,25.9449],[37.5214,26.011],[37.3241,26.2268],[37.3264,26.2481],[37.3813,26.2902],[37.3802,26.3294],[37.3443,26.3378],[37.2501,26.3115],[37.207,26.3305],[37.1986,26.3703],[37.2294,26.4449],[37.1145,26.5659],[37.1145,26.6422],[37.1437,26.6904],[37.142,26.7313],[37.0069,26.8316],[36.9312,26.84],[36.9548,27.0463],[36.9088,27.0782],[36.8343,27.0558],[36.7603,27.104],[36.7384,27.2273],[36.7586,27.289],[36.9273,27.3938],[36.9772,27.4509],[37.1214,27.4189],[37.2712,27.4365],[37.3153,27.3666],[37.4188,27.3797],[37.47,27.4216],[37.5384,27.4343],[37.6449,27.5228],[37.6732,27.5243],[37.7981,27.4204],[37.8578,27.435],[37.9229,27.401],[37.9314,27.3311],[37.8885,27.2799],[37.9135,27.1544],[37.9796,27.1096],[38.0039,26.9885],[38.054,26.947],[38.0888,26.8622],[38.1213,26.8316],[38.2199,26.8286],[38.3697,26.7927],[38.6522,26.8476],[38.7318,26.8289],[38.9825,26.8405],[39.2561,26.8028],[39.3782,26.8054],[39.4409,26.847],[39.5023,26.8583],[39.5685,26.9182],[39.7335,27.1199],[39.7855,27.2302],[39.8256,27.2385],[39.8871,27.2093],[39.8983,27.165],[39.9632,27.1515],[39.9782,27.1255],[39.9998,27.1294],[40.011,27.1691],[40.011,27.2787],[39.9249,27.4283],[39.9084,27.6058],[39.8324,27.7646],[39.7478,27.8426],[39.4147,27.9746],[39.3675,28.0224],[39.3693,28.0622],[39.4557,28.1872],[39.608,28.3543],[39.6914,28.406],[39.7912,28.5448]]]]}},{"type":"Feature","properties":{"iso":"SA-03","nameEn":"Madinah","nameAr":"المدينة المنورة","clusters":["Madinah"],"inTerritory":true},"geometry":{"type":"Polygon","coordinates":[[[39.5023,26.8583],[39.3435,26.8005],[38.9825,26.8405],[38.7318,26.8289],[38.6522,26.8476],[38.3697,26.7927],[38.2199,26.8286],[38.1213,26.8316],[38.0888,26.8622],[38.054,26.947],[38.0039,26.9885],[37.9796,27.1096],[37.9135,27.1544],[37.8885,27.2799],[37.9314,27.3311],[37.9229,27.401],[37.8578,27.435],[37.7981,27.4204],[37.7424,27.4784],[37.6594,27.5266],[37.5193,27.4249],[37.47,27.4216],[37.4188,27.3797],[37.3153,27.3666],[37.2712,27.4365],[37.1214,27.4189],[36.9772,27.4509],[36.915,27.3848],[36.767,27.2985],[36.7384,27.2273],[36.7519,27.1214],[36.7905,27.076],[36.8466,27.0558],[36.9256,27.0765],[36.9548,27.0463],[36.9312,26.84],[37.0069,26.8316],[37.142,26.7313],[37.1437,26.6904],[37.1145,26.6422],[37.1145,26.5659],[37.2294,26.4449],[37.1986,26.3703],[37.207,26.3305],[37.2501,26.3115],[37.3443,26.3378],[37.3802,26.3294],[37.3813,26.2902],[37.3264,26.2481],[37.3241,26.2268],[37.5214,26.011],[37.5478,25.9449],[37.5444,25.8429],[37.6016,25.7925],[37.7434,25.7583],[37.8443,25.6882],[37.8465,25.6523],[37.74,25.5761],[37.7254,25.5436],[37.7389,25.4629],[37.7961,25.3317],[37.7843,25.2628],[37.8628,25.1726],[37.8577,25.0756],[37.8779,24.9921],[37.9345,24.9383],[37.9709,24.8626],[37.9872,24.8553],[38.0275,24.8834],[38.0494,24.8593],[38.0505,24.7881],[38.0303,24.7612],[37.9973,24.7858],[37.9188,24.7931],[37.7989,24.7589],[37.8496,24.7171],[37.7857,24.6442],[37.7184,24.6655],[37.557,24.6625],[37.4953,24.6935],[37.4374,24.568],[37.3858,24.5349],[37.4614,24.4367],[37.4579,24.4093],[37.435,24.4179],[37.4269,24.3694],[37.4694,24.3413],[37.5009,24.2868],[37.5596,24.2699],[37.5758,24.2463],[37.6305,24.2473],[37.6163,24.2943],[37.692,24.301],[37.716,24.2612],[37.7488,24.2615],[37.7825,24.2077],[37.8641,24.1513],[37.9289,24.1463],[37.9306,24.1805],[37.9119,24.1973],[37.9519,24.2102],[37.9346,24.1659],[37.978,24.1754],[37.9911,24.157],[37.9621,24.1681],[37.9338,24.145],[38.0389,24.0698],[38.0712,24.0822],[38.0542,24.0667],[38.0688,24.0582],[38.0817,24.0768],[38.1605,24.0192],[38.1495,24.0011],[38.1917,24.0007],[38.1842,23.9798],[38.2491,23.9319],[38.2551,23.9507],[38.2815,23.9416],[38.2805,23.9173],[38.2883,23.9355],[38.3037,23.8992],[38.3715,23.8653],[38.4002,23.8097],[38.4325,23.8118],[38.4635,23.7801],[38.4916,23.6615],[38.4946,23.6778],[38.5047,23.6403],[38.5389,23.6327],[38.5168,23.6241],[38.5437,23.5982],[38.5431,23.54],[38.5973,23.5314],[38.5615,23.5423],[38.5564,23.5632],[38.605,23.5713],[38.5998,23.542],[38.6376,23.5073],[38.6545,23.4221],[38.6601,23.4373],[38.6658,23.4225],[38.7422,23.4253],[38.9281,23.4478],[38.9897,23.3561],[39.2078,23.1622],[39.3944,23.1858],[39.4403,23.1758],[39.4528,23.0722],[39.4731,23.0567],[39.7761,23.1439],[39.9142,23.1522],[39.9453,23.115],[39.9533,23.0278],[39.8781,22.8186],[39.8953,22.7986],[40.0108,22.7669],[40.0714,22.7156],[40.0844,22.6533],[40.0603,22.5492],[40.0792,22.5067],[40.1683,22.49],[40.2406,22.4989],[40.4192,22.6325],[40.6631,22.5736],[40.7928,22.7531],[41.0639,22.9444],[41.2358,23.1058],[41.4239,23.1794],[41.4644,23.2172],[41.4528,23.2594],[41.2756,23.3561],[41.2697,23.3961],[41.3739,23.4731],[41.715,23.6292],[41.7658,23.7292],[41.7611,23.8153],[41.7289,23.8825],[41.7458,23.9444],[41.8397,23.9719],[41.9864,23.9491],[41.9853,24.1897],[42.0261,24.3194],[41.9989,24.4153],[42.0905,24.5433],[42.1297,24.7074],[42.1373,24.8514],[42.0279,24.9134],[41.9851,24.982],[41.8181,25.1207],[41.7018,25.1798],[41.6322,25.2834],[41.5534,25.33],[41.4344,25.3588],[41.3943,25.4566],[41.3224,25.4829],[41.1744,25.4895],[41.0637,25.5681],[40.9831,25.5614],[40.9055,25.5831],[40.831,25.5622],[40.714,25.4172],[40.5926,25.4056],[40.5461,25.4394],[40.5075,25.4373],[40.4565,25.3827],[40.4543,25.291],[40.3821,25.3134],[40.1803,25.3269],[40.0141,25.3839],[39.978,25.4307],[39.9581,25.5254],[39.979,25.7374],[39.9515,25.8046],[39.962,26.1495],[39.8881,26.2643],[39.8862,26.3976],[39.7909,26.5243],[39.761,26.5978],[39.6681,26.6667],[39.6593,26.7308],[39.5066,26.7573],[39.5023,26.8583]]]}},{"type":"Feature","properties":{"iso":"SA-05","nameEn":"Qassim","nameAr":"القصيم","clusters":[],"inTerritory":false},"geometry":{"type":"Polygon","coordinates":[[[43.9276,28.1095],[43.7317,27.9456],[43.7034,27.7377],[43.7158,27.517],[43.5089,27.5021],[43.4747,27.4712],[43.4154,27.4956],[43.3865,27.4735],[43.3829,27.4307],[43.2864,27.4138],[43.2654,27.3116],[43.334,27.2852],[43.338,27.25],[43.2136,27.2095],[43.2161,27.119],[43.1166,26.9602],[43.0113,26.8777],[42.9386,26.9197],[42.8898,26.8696],[42.8479,26.8781],[42.7779,26.8265],[42.7109,26.8227],[42.7133,26.747],[42.6182,26.613],[42.4573,26.5061],[42.4051,26.5154],[42.3598,26.4215],[42.3377,26.4758],[42.2783,26.4683],[42.2393,26.4081],[42.1625,26.3445],[42.2016,26.2385],[42.1603,26.155],[42.0706,26.18],[42.0316,26.1268],[41.9481,26.0956],[41.9422,26.0311],[41.9109,25.9997],[41.9231,25.9539],[41.8978,25.9437],[41.8258,25.9673],[41.8035,25.9188],[41.8183,25.8823],[41.7274,25.8131],[41.6781,25.725],[41.4743,25.7372],[41.4378,25.723],[41.3527,25.5738],[41.2374,25.4798],[41.3224,25.4829],[41.3943,25.4566],[41.4344,25.3588],[41.5534,25.33],[41.6322,25.2834],[41.7018,25.1798],[41.8181,25.1207],[41.9851,24.982],[42.0279,24.9134],[42.1229,24.8642],[42.1391,24.8357],[42.1297,24.7074],[42.4331,24.7],[42.5636,24.4453],[42.7861,24.4439],[42.8246,24.4689],[42.8245,24.5105],[42.8584,24.5336],[42.9657,24.5439],[43.0671,24.5163],[43.1212,24.5563],[43.2091,24.7298],[43.1947,24.7528],[43.1185,24.7353],[43.0936,24.7491],[43.1078,24.7726],[43.1589,24.7891],[43.1152,24.8414],[43.1889,24.8687],[43.2194,24.92],[43.1807,24.9367],[43.1033,24.8996],[43.101,24.9424],[43.1426,25.0118],[43.2643,25.0145],[43.3722,25.0998],[43.4539,25.2055],[43.5043,25.2151],[43.6066,25.1655],[43.6887,25.1842],[43.7303,25.2196],[43.7338,25.311],[43.9703,25.3365],[44.0544,25.4477],[44.3743,25.5319],[44.4566,25.6107],[44.7168,25.5058],[44.7587,25.5848],[44.7942,25.7003],[44.6436,25.7963],[44.5063,26.0685],[44.4287,26.4054],[44.3882,26.7217],[44.4149,26.9622],[44.462,27.0015],[44.7075,27.0447],[44.8956,26.9307],[44.877,27.0312],[44.8916,27.2238],[44.8752,27.2982],[44.7437,27.502],[44.4784,27.7961],[44.2836,27.9224],[44.1641,27.9682],[44.083,27.9653],[43.9913,27.8954],[43.964,27.9026],[43.9608,27.9344],[43.9107,27.9538],[43.9377,28.0452],[43.9276,28.1095]]]}},{"type":"Feature","properties":{"iso":"SA-11","nameEn":"Al Baha","nameAr":"الباحة","clusters":["Baha"],"inTerritory":true},"geometry":{"type":"Polygon","coordinates":[[[42.0319,20.6247],[41.9744,20.6775],[41.9314,20.6836],[41.7742,20.6083],[41.6533,20.6139],[41.5194,20.5656],[41.4639,20.6056],[41.4267,20.7086],[41.3914,20.7483],[41.35,20.765],[41.2844,20.7564],[41.245,20.7178],[41.2247,20.66],[41.2569,20.5358],[41.2533,20.4714],[41.1356,20.2472],[40.9111,20.1964],[40.795,20.0842],[40.8194,20.0261],[40.9256,19.9961],[40.9536,19.9542],[40.9447,19.8092],[40.9711,19.7022],[40.9633,19.5803],[41.0011,19.5381],[41.1081,19.4794],[41.19,19.3769],[41.2664,19.3628],[41.3531,19.3961],[41.4278,19.6433],[41.4975,19.7658],[41.6978,19.7931],[41.8222,20.0356],[41.8156,20.1328],[41.84,20.1819],[42.0089,20.2906],[42.0389,20.3303],[42.0358,20.3739],[41.9697,20.4494],[42.0319,20.6247]]]}},{"type":"Feature","properties":{"iso":"SA-09","nameEn":"Jazan","nameAr":"جازان","clusters":["Jazan"],"inTerritory":true},"geometry":{"type":"MultiPolygon","coordinates":[[[[41.567,16.8793],[41.5839,16.8291],[41.6352,16.8133],[41.5685,16.8987],[41.567,16.8793]]],[[[41.7878,16.9855],[41.7998,16.9515],[41.8218,16.9681],[41.7878,16.9855]]],[[[41.8469,17.0121],[41.8879,17.0008],[41.9422,16.9524],[41.9373,16.9796],[41.8469,17.0121]]],[[[42.2364,16.4346],[42.2707,16.4086],[42.2725,16.4269],[42.2364,16.4346]]],[[[42.0356,16.5497],[42.0543,16.5239],[42.0735,16.5559],[42.0559,16.5392],[42.0579,16.5634],[42.0356,16.5497]]],[[[41.7273,16.7939],[41.7532,16.787],[41.7604,16.8017],[41.7273,16.7939]]],[[[42.0003,16.7893],[42.0158,16.7685],[42.0203,16.786],[42.0003,16.7893]]],[[[41.9062,16.6263],[41.9277,16.6141],[41.9221,16.6315],[41.9062,16.6263]]],[[[41.7218,16.7287],[41.7603,16.6971],[41.8327,16.6793],[41.7935,16.7278],[41.7218,16.7287]]],[[[41.9973,16.6225],[42.0181,16.6041],[42.035,16.6326],[42.032,16.5988],[42.0416,16.6471],[42.0107,16.6517],[41.9973,16.6225]]],[[[41.7549,16.8898],[41.7885,16.8402],[41.7728,16.8072],[41.8158,16.8043],[41.8717,16.7267],[41.9763,16.6674],[41.9851,16.6854],[42.1023,16.6853],[42.113,16.6535],[42.0732,16.6308],[42.1262,16.6205],[42.1593,16.5815],[42.1897,16.5864],[42.1737,16.6564],[42.1922,16.7099],[42.1612,16.6902],[42.1805,16.7224],[42.1549,16.7179],[42.1241,16.745],[42.0874,16.8192],[42.0504,16.8008],[42.0326,16.7509],[42.0687,16.7328],[42.0646,16.7548],[42.0817,16.7223],[42.0338,16.7091],[42.0004,16.7475],[41.9734,16.7328],[41.8945,16.7538],[41.8546,16.8429],[41.7549,16.8898]]],[[[41.8369,16.8991],[41.8806,16.8198],[41.9849,16.7829],[41.9984,16.7515],[42.0111,16.7617],[41.9729,16.8124],[41.9233,16.841],[41.9827,16.8497],[41.9904,16.8697],[41.935,16.9031],[41.9471,16.9327],[41.9338,16.9519],[41.915,16.9576],[41.8936,16.9234],[41.8435,16.9154],[41.8369,16.8991]]],[[[41.6511,16.9193],[41.6796,16.8907],[41.7273,16.9316],[41.6823,16.9616],[41.6511,16.9193]]],[[[41.7706,18.3139],[41.7233,18.2383],[41.6225,18.1814],[41.5845,18.0943],[41.6069,18.0809],[41.6026,18.0614],[41.6465,18.0472],[41.6536,18.019],[41.6341,18.0157],[41.6376,17.9984],[41.6513,17.9897],[41.6689,18.0167],[41.6598,17.9839],[41.7781,17.8618],[41.774,17.8379],[41.8915,17.8066],[41.8754,17.7921],[42.1146,17.6258],[42.144,17.5582],[42.1802,17.5593],[42.2585,17.4907],[42.2752,17.4477],[42.2889,17.4479],[42.2836,17.464],[42.3112,17.4456],[42.3249,17.3959],[42.3098,17.3383],[42.3282,17.3375],[42.3718,17.0148],[42.3836,17.0381],[42.3782,17.0267],[42.3692,17.1017],[42.3965,17.116],[42.3591,17.1901],[42.4248,17.1591],[42.4151,17.1051],[42.4522,17.0558],[42.5261,17.0325],[42.5559,17.0026],[42.5373,16.9707],[42.5436,16.9023],[42.525,16.8828],[42.5763,16.8579],[42.5767,16.8324],[42.6325,16.8227],[42.7083,16.7319],[42.6863,16.7396],[42.7177,16.6746],[42.7368,16.6687],[42.7068,16.6723],[42.7312,16.6622],[42.7149,16.5681],[42.7373,16.5019],[42.7782,16.4686],[42.7544,16.4122],[42.8305,16.3796],[42.948,16.3997],[42.9503,16.497],[42.9903,16.5217],[43.1156,16.5318],[43.1449,16.6782],[43.2337,16.6506],[43.2106,16.7107],[43.2212,16.7474],[43.2611,16.7543],[43.2484,16.7752],[43.2666,16.7949],[43.2324,16.8068],[43.1993,16.8533],[43.18,16.8491],[43.1381,16.9176],[43.1947,16.9445],[43.1781,16.9633],[43.1809,17.0321],[43.2027,17.0101],[43.2309,17.0295],[43.2486,17.0153],[43.2272,17.0754],[43.1853,17.0986],[43.1602,17.087],[43.158,17.1141],[43.1779,17.1307],[43.1708,17.1727],[43.2163,17.2104],[43.2041,17.2602],[43.3365,17.304],[43.326,17.3284],[43.228,17.3855],[43.2471,17.4015],[43.2255,17.4262],[43.2565,17.4578],[43.2408,17.4805],[43.3209,17.5327],[43.2292,17.6447],[43.1236,17.6772],[43.0469,17.8061],[42.9425,17.8567],[42.9464,17.9794],[42.9175,18.0106],[42.77,17.9261],[42.735,17.8678],[42.6867,17.68],[42.6294,17.6578],[42.5853,17.6753],[42.4911,17.7633],[42.445,17.8669],[42.4078,17.9014],[42.1675,17.9125],[42.0903,18.0481],[41.9422,18.0419],[41.9208,18.055],[41.9367,18.2983],[41.9,18.3269],[41.7706,18.3139]]]]}},{"type":"Feature","properties":{"iso":"SA-12","nameEn":"Al Jouf","nameAr":"الجوف","clusters":["Jouf"],"inTerritory":true},"geometry":{"type":"Polygon","coordinates":[[[37.9655,31.7459],[37.0009,31.5001],[37.9971,30.5007],[37.6656,30.3326],[37.5016,29.9998],[37.6044,29.8964],[37.9216,29.6973],[38.1018,29.6244],[38.2052,29.6061],[38.3974,29.5053],[38.3919,29.4719],[38.251,29.3211],[38.2043,29.225],[38.2233,29.185],[38.2871,29.186],[38.488,29.2535],[38.5806,29.2356],[38.9668,29.015],[39.1574,28.8536],[39.3131,28.7522],[39.3983,28.7108],[39.7183,28.6159],[39.7683,28.5861],[39.7912,28.5448],[39.9505,28.6336],[40.4246,28.8155],[40.5379,28.8867],[41.3488,28.8729],[41.3615,28.977],[41.4165,29.1058],[41.4926,29.1358],[41.6032,29.1336],[41.5777,29.2581],[41.5919,29.3116],[41.5568,29.3352],[41.5049,29.4437],[41.5117,29.5499],[41.4627,29.5566],[41.4463,29.5266],[41.4218,29.5309],[41.4189,29.7553],[41.3949,29.7909],[41.4543,29.8195],[41.5035,29.818],[41.5587,29.8997],[41.5929,29.9199],[41.7132,29.9264],[41.7492,29.9095],[41.7696,30.0042],[41.7901,30.0239],[41.9433,30.0602],[41.9786,30.0886],[41.8232,30.2198],[41.7425,30.3221],[41.6133,30.342],[41.5693,30.3728],[41.5595,30.4307],[41.6306,30.4917],[41.6327,30.5207],[41.4639,30.5545],[41.4185,30.5884],[41.3611,30.5689],[41.1972,30.5785],[41.1458,30.5115],[41.1134,30.5101],[41.1002,30.5535],[41.1218,30.6688],[41.1007,30.7301],[41.0111,30.7615],[40.8936,30.7714],[40.6897,30.7373],[40.4353,30.781],[40.2991,30.8257],[40.2578,30.8125],[40.1992,30.7471],[40.094,30.7346],[39.9786,30.8009],[39.937,30.8456],[39.8969,30.8533],[39.8686,30.8896],[39.7547,30.8545],[39.6497,30.9148],[39.4921,30.9172],[39.4141,30.8915],[39.3139,30.9511],[39.2092,30.9693],[38.98,30.9674],[38.869,30.9076],[38.8044,30.9025],[38.7917,30.8821],[38.7597,30.8901],[38.734,30.9302],[38.558,30.9338],[38.4669,30.9078],[38.3326,30.9054],[38.1938,30.8591],[38.1626,30.915],[38.1789,31.0015],[38.1527,31.0483],[38.1559,31.0892],[38.1275,31.1146],[38.0754,31.1041],[38.096,31.1611],[38.0754,31.1702],[38.0562,31.1464],[38.0009,31.2033],[37.9147,31.1969],[37.8902,31.2144],[37.9358,31.2831],[37.9332,31.3369],[37.962,31.3751],[37.9418,31.4522],[37.9635,31.4697],[37.9411,31.5216],[37.957,31.5814],[37.937,31.6239],[37.9655,31.7459]]]}}]}